#aV2019 11  9  0  0  0.00000000     288 DD+AD WGS84 FIT  NGA
## 2078 518400.00000000   300.00000000 58796 0.0000000000000
+   32     1  2  3  4  5  6  7  8  9 10 11 12 13 14 15 16 17
+         18 19 20 21 22 23 24 25 26 27 28 29 30 31 32  0  0
+          0  0  0  0  0  0  0  0  0  0  0  0  0  0  0  0  0
+          0  0  0  0  0  0  0  0  0  0  0  0  0  0  0  0  0
+          0  0  0  0  0  0  0  0  0  0  0  0  0  0  0  0  0
++         2  2  2  2  2  2  2  2  2  2  2  2  2  2  2  2  2
++         2  2  2  2  2  2  2  2  2  2  2  2  2  2  2  0  0
++         0  0  0  0  0  0  0  0  0  0  0  0  0  0  0  0  0
++         0  0  0  0  0  0  0  0  0  0  0  0  0  0  0  0  0
++         0  0  0  0  0  0  0  0  0  0  0  0  0  0  0  0  0
%c cc cc ccc ccc cccc cccc cccc cccc ccccc ccccc ccccc ccccc
%c cc cc ccc ccc cccc cccc cccc cccc ccccc ccccc ccccc ccccc
%f  0.0000000  0.000000000  0.00000000000  0.000000000000000
%f  0.0000000  0.000000000  0.00000000000  0.000000000000000
%i    0    0    0    0      0      0      0      0         0
%i    0    0    0    0      0      0      0      0         0
/*      NGA, ST. LOUIS,MO.                                  
/*   EPHEMERIS COMPUTED FROM 2 DAYS OF DATA                 
/*   EPOCHA v5 SMOOTHER                                     
/*   G1762 IERS2010 SATAF SATAPC                            
*  2019 11  9 11 45  0.00000000
P  1  20777.319832  14478.436560  -8730.672648   -191.407479                    
V  1 -10609.494287  -2231.960817 -29332.862291     -0.127717                    
P  2   -636.665160 -16198.738178  21680.670928   -343.214233                    
V  2  25034.007723   7318.858735   6268.926113     -0.077008                    
P  3  13171.415966  17691.978555  14801.260759    -34.062410                    
V  3    968.050377  18935.786445 -23313.711039     -0.056394                    
P  4  22635.081609  -6270.339573  12356.746786     -7.238763                    
V  4 -11070.533912  11347.090851  26140.339693     -0.038803                    
P  5  -2905.514893 -26138.880100   2699.947015     -3.246272                    
V  5   3911.365266   2952.314730  31404.109071     -0.004596                    
P  6  14235.879526  -9313.000169  20449.782097   -118.085856                    
V  6  23802.379959  10013.635255 -12010.038596     -0.121185                    
P  7  25412.319019   5243.324706  -6466.426508   -145.048078                    
V  7   6928.121145   5502.459337  29888.141453     -0.081293                    
P  8   4909.344047  14925.856117 -21344.850636    -12.762722                    
V  8 -21336.154408  16875.892795   7093.911628     -0.012744                    
P  9  20947.302415  -2551.119955  16079.984569    -78.849077                    
V  9 -14464.140622  14723.961209  21101.056792     -0.098066                    
P 10 -12395.221006  11671.071108 -20263.691723   -127.694280                    
V 10  -5184.286832 -25427.139031 -11656.053235     -0.149239                    
P 11  19160.274363  10378.316506 -15490.656784   -453.290676                    
V 11 -18723.330319   4680.106703 -21023.383658      0.111588                    
P 12  -9305.215712 -22320.675315  10952.863734    185.349158                    
V 12    607.136155 -14255.745164 -27827.658801     -0.039567                    
P 13   5146.659163 -18281.633962 -18657.738502    -33.891794                    
V 13  20660.436584 -11172.747716  16824.534187      0.023019                    
P 14 -16188.534506  18927.783291   9282.821084    -51.485834                    
V 14 -10885.828572   4254.295190 -28846.258787      0.021414                    
P 15  -7797.725491 -14489.629491 -21093.898006   -273.902937                    
V 15  19312.034188 -17871.265076   5600.890639      0.026923                    
P 16  -1237.156428  25879.196368   4460.687077    -91.433898                    
V 16  -2926.848195  -5780.277770  31809.832270     -0.037253                    
P 17  21728.146252 -15165.283383   -562.748489    159.757581                    
V 17    255.771183   2459.057287 -32314.698443      0.070491                    
P 18  14158.199569  16423.598526 -15906.232875     98.961710                    
V 18 -18879.273361  -4233.851634 -21783.260072      0.026035                    
P 19  19364.296424 -17171.742990   5717.366267   -242.174881                    
V 19   7526.323851  -2410.896983 -31112.570788      0.051987                    
P 20 -16129.564337    949.648831 -21199.494523    527.419304                    
V 20  -7074.800193 -25830.964574   4053.401670      0.000818                    
P 21 -24564.657468  -1017.842967  -8988.413452    -88.883060                    
V 21 -11061.537671  -6842.817394  28729.265486      0.060172                    
P 22  11632.865213  22592.302947   8116.246980   -770.422649                    
V 22  -1005.520577  10561.237679 -28627.765983     -0.026836                    
P 23  15278.950944   7015.078905  20981.572183   -156.571992                    
V 23 -19336.463007  17156.316587   8099.802689      0.022366                    
P 24 -19732.360919 -14626.219273 -10717.951278     -4.633871                    
V 24  13485.118844   1454.251478 -26898.345213     -0.004008                    
P 25 -15158.781298  -8825.114872  19807.550120    -16.925880                    
V 25  -2909.359627 -25378.391959 -13135.547359     -0.004708                    
P 26  -5974.873078  21790.396142  13784.917080     80.353986                    
V 26  -5791.978353 -16861.514606  24309.222904      0.084038                    
P 27  -7106.913021  19760.731224 -16183.729984   -114.361862                    
V 27 -16936.032232  11541.453894  21980.370138     -0.119727                    
P 28  12383.575795 -12104.755684 -19569.227765    755.815904                    
V 28   2706.001012  25983.404784 -13821.496164     -0.015551                    
P 29 -20142.887056    150.123330  17294.045805     48.907643                    
V 29  17247.391345 -13638.238635  20146.888204     -0.100214                    
P 30  20951.893005  -3690.882644 -15989.611452    -79.999783                    
V 30  17814.313186  10067.740952  20781.666450     -0.083750                    
P 31 -12760.514790  10520.630858  20856.332225     -2.014470                    
V 31 -24154.601613 -10747.373730  -8899.702524     -0.025807                    
P 32 -20928.991061  16199.648697  -1038.365067    119.308386                    
V 32   -858.233394  -3251.044218 -31716.333443      0.122841                    
EOF
